CCSDS_OMM_VERS = 2.0
CREATION_DATE  = 
ORIGINATOR     = 

OBJECT_NAME    = ATLAS CENTAUR 2
OBJECT_ID      = 1963-047A
CENTER_NAME    = EARTH
REF_FRAME      = TEME
TIME_SYSTEM    = UTC
MEAN_ELEMENT_THEORY = SGP/SGP4

EPOCH          = 2026-03-05T02:14:13.394976
MEAN_MOTION    = 14.12050783
ECCENTRICITY   = .05477871
INCLINATION    = 30.3518
RA_OF_ASC_NODE = 221.3311
ARG_OF_PERICENTER = 39.7778
MEAN_ANOMALY   = 324.1699

EPHEMERIS_TYPE = 0
CLASSIFICATION_TYPE = U
NORAD_CAT_ID   = 694
ELEMENT_SET_NO = 999
REV_AT_EPOCH   = 13097
BSTAR          = .20441722E-3
MEAN_MOTION_DOT = .1752E-4
MEAN_MOTION_DDOT = 0

CCSDS_OMM_VERS = 2.0
CREATION_DATE  = 
ORIGINATOR     = 

OBJECT_NAME    = THOR AGENA D R/B
OBJECT_ID      = 1964-002A
CENTER_NAME    = EARTH
REF_FRAME      = TEME
TIME_SYSTEM    = UTC
MEAN_ELEMENT_THEORY = SGP/SGP4

EPOCH          = 2026-03-05T06:23:00.628800
MEAN_MOTION    = 14.34017210
ECCENTRICITY   = .00319061
INCLINATION    = 99.1227
RA_OF_ASC_NODE = 77.3623
ARG_OF_PERICENTER = 271.3525
MEAN_ANOMALY   = 88.4003

EPHEMERIS_TYPE = 0
CLASSIFICATION_TYPE = U
NORAD_CAT_ID   = 733
ELEMENT_SET_NO = 999
REV_AT_EPOCH   = 23766
BSTAR          = .13098389E-3
MEAN_MOTION_DOT = .319E-5
MEAN_MOTION_DDOT = 0

CCSDS_OMM_VERS = 2.0
CREATION_DATE  = 
ORIGINATOR     = 

OBJECT_NAME    = SL-3 R/B
OBJECT_ID      = 1964-053B
CENTER_NAME    = EARTH
REF_FRAME      = TEME
TIME_SYSTEM    = UTC
MEAN_ELEMENT_THEORY = SGP/SGP4

EPOCH          = 2026-03-05T04:12:21.144672
MEAN_MOTION    = 14.61363349
ECCENTRICITY   = .0079569
INCLINATION    = 65.0788
RA_OF_ASC_NODE = 344.4717
ARG_OF_PERICENTER = 293.6556
MEAN_ANOMALY   = 65.6207

EPHEMERIS_TYPE = 0
CLASSIFICATION_TYPE = U
NORAD_CAT_ID   = 877
ELEMENT_SET_NO = 999
REV_AT_EPOCH   = 26613
BSTAR          = .11180729E-3
MEAN_MOTION_DOT = .453E-5
MEAN_MOTION_DDOT = 0

CCSDS_OMM_VERS = 2.0
CREATION_DATE  = 
ORIGINATOR     = 

OBJECT_NAME    = SL-8 R/B
OBJECT_ID      = 1967-045B
CENTER_NAME    = EARTH
REF_FRAME      = TEME
TIME_SYSTEM    = UTC
MEAN_ELEMENT_THEORY = SGP/SGP4

EPOCH          = 2026-03-05T05:10:01.400736
MEAN_MOTION    = 14.45617853
ECCENTRICITY   = .00640097
INCLINATION    = 74.0138
RA_OF_ASC_NODE = 356.4442
ARG_OF_PERICENTER = 3.7658
MEAN_ANOMALY   = 356.3968

EPHEMERIS_TYPE = 0
CLASSIFICATION_TYPE = U
NORAD_CAT_ID   = 2802
ELEMENT_SET_NO = 999
REV_AT_EPOCH   = 8837
BSTAR          = .18201541E-3
MEAN_MOTION_DOT = .631E-5
MEAN_MOTION_DDOT = 0

CCSDS_OMM_VERS = 2.0
CREATION_DATE  = 
ORIGINATOR     = 

OBJECT_NAME    = SL-8 R/B
OBJECT_ID      = 1968-040B
CENTER_NAME    = EARTH
REF_FRAME      = TEME
TIME_SYSTEM    = UTC
MEAN_ELEMENT_THEORY = SGP/SGP4

EPOCH          = 2026-03-05T02:49:22.968480
MEAN_MOTION    = 15.03219232
ECCENTRICITY   = .00240734
INCLINATION    = 74.0328
RA_OF_ASC_NODE = 323.0362
ARG_OF_PERICENTER = 148.3655
MEAN_ANOMALY   = 211.8987

EPHEMERIS_TYPE = 0
CLASSIFICATION_TYPE = U
NORAD_CAT_ID   = 3230
ELEMENT_SET_NO = 999
REV_AT_EPOCH   = 8932
BSTAR          = .32968914E-3
MEAN_MOTION_DOT = .445E-4
MEAN_MOTION_DDOT = 0

CCSDS_OMM_VERS = 2.0
CREATION_DATE  = 
ORIGINATOR     = 

OBJECT_NAME    = OAO 2
OBJECT_ID      = 1968-110A
CENTER_NAME    = EARTH
REF_FRAME      = TEME
TIME_SYSTEM    = UTC
MEAN_ELEMENT_THEORY = SGP/SGP4

EPOCH          = 2026-03-05T00:33:01.733472
MEAN_MOTION    = 14.47304579
ECCENTRICITY   = .00053557
INCLINATION    = 34.9934
RA_OF_ASC_NODE = 291.2799
ARG_OF_PERICENTER = 168.0596
MEAN_ANOMALY   = 192.0223

EPHEMERIS_TYPE = 0
CLASSIFICATION_TYPE = U
NORAD_CAT_ID   = 3597
ELEMENT_SET_NO = 999
REV_AT_EPOCH   = 1842
BSTAR          = .10027781E-3
MEAN_MOTION_DOT = .353E-5
MEAN_MOTION_DDOT = 0

CCSDS_OMM_VERS = 2.0
CREATION_DATE  = 
ORIGINATOR     = 

OBJECT_NAME    = ISIS 1
OBJECT_ID      = 1969-009A
CENTER_NAME    = EARTH
REF_FRAME      = TEME
TIME_SYSTEM    = UTC
MEAN_ELEMENT_THEORY = SGP/SGP4

EPOCH          = 2026-03-05T04:56:46.281408
MEAN_MOTION    = 11.30412502
ECCENTRICITY   = .17078246
INCLINATION    = 88.4547
RA_OF_ASC_NODE = 155.7975
ARG_OF_PERICENTER = 98.2065
MEAN_ANOMALY   = 281.5357

EPHEMERIS_TYPE = 0
CLASSIFICATION_TYPE = U
NORAD_CAT_ID   = 3669
ELEMENT_SET_NO = 999
REV_AT_EPOCH   = 34802
BSTAR          = .12724964E-3
MEAN_MOTION_DOT = .202E-5
MEAN_MOTION_DDOT = 0

CCSDS_OMM_VERS = 2.0
CREATION_DATE  = 
ORIGINATOR     = 

OBJECT_NAME    = SERT 2
OBJECT_ID      = 1970-009A
CENTER_NAME    = EARTH
REF_FRAME      = TEME
TIME_SYSTEM    = UTC
MEAN_ELEMENT_THEORY = SGP/SGP4

EPOCH          = 2026-03-05T07:14:10.925376
MEAN_MOTION    = 13.58729385
ECCENTRICITY   = .00048735
INCLINATION    = 99.2754
RA_OF_ASC_NODE = 7.6353
ARG_OF_PERICENTER = 166.4986
MEAN_ANOMALY   = 358.2692

EPHEMERIS_TYPE = 0
CLASSIFICATION_TYPE = U
NORAD_CAT_ID   = 4327
ELEMENT_SET_NO = 999
REV_AT_EPOCH   = 77929
BSTAR          = .72030555E-4
MEAN_MOTION_DOT = .11E-6
MEAN_MOTION_DDOT = 0

CCSDS_OMM_VERS = 2.0
CREATION_DATE  = 
ORIGINATOR     = 

OBJECT_NAME    = SL-3 R/B
OBJECT_ID      = 1971-028B
CENTER_NAME    = EARTH
REF_FRAME      = TEME
TIME_SYSTEM    = UTC
MEAN_ELEMENT_THEORY = SGP/SGP4

EPOCH          = 2026-03-05T05:35:27.375072
MEAN_MOTION    = 15.60692326
ECCENTRICITY   = .00138768
INCLINATION    = 81.2342
RA_OF_ASC_NODE = 57.5317
ARG_OF_PERICENTER = 304.8524
MEAN_ANOMALY   = 55.1423

EPHEMERIS_TYPE = 0
CLASSIFICATION_TYPE = U
NORAD_CAT_ID   = 5118
ELEMENT_SET_NO = 999
REV_AT_EPOCH   = 98797
BSTAR          = .58854625E-3
MEAN_MOTION_DOT = .49263E-3
MEAN_MOTION_DDOT = 0

CCSDS_OMM_VERS = 2.0
CREATION_DATE  = 
ORIGINATOR     = 

OBJECT_NAME    = ASTEX 1
OBJECT_ID      = 1971-089A
CENTER_NAME    = EARTH
REF_FRAME      = TEME
TIME_SYSTEM    = UTC
MEAN_ELEMENT_THEORY = SGP/SGP4

EPOCH          = 2026-03-05T04:49:31.241856
MEAN_MOTION    = 14.50764119
ECCENTRICITY   = .00178699
INCLINATION    = 92.7127
RA_OF_ASC_NODE = 150.3082
ARG_OF_PERICENTER = 99.1068
MEAN_ANOMALY   = 261.2161

EPHEMERIS_TYPE = 0
CLASSIFICATION_TYPE = U
NORAD_CAT_ID   = 5560
ELEMENT_SET_NO = 999
REV_AT_EPOCH   = 86165
BSTAR          = .15777049E-3
MEAN_MOTION_DOT = .621E-5
MEAN_MOTION_DDOT = 0

CCSDS_OMM_VERS = 2.0
CREATION_DATE  = 
ORIGINATOR     = 

OBJECT_NAME    = SL-8 R/B
OBJECT_ID      = 1971-119B
CENTER_NAME    = EARTH
REF_FRAME      = TEME
TIME_SYSTEM    = UTC
MEAN_ELEMENT_THEORY = SGP/SGP4

EPOCH          = 2026-03-05T06:34:16.614624
MEAN_MOTION    = 14.37720327
ECCENTRICITY   = .05496269
INCLINATION    = 73.8884
RA_OF_ASC_NODE = 183.9712
ARG_OF_PERICENTER = 151.5250
MEAN_ANOMALY   = 211.7146

EPHEMERIS_TYPE = 0
CLASSIFICATION_TYPE = U
NORAD_CAT_ID   = 5730
ELEMENT_SET_NO = 999
REV_AT_EPOCH   = 65485
BSTAR          = .81834011E-3
MEAN_MOTION_DOT = .15754E-3
MEAN_MOTION_DDOT = 0

CCSDS_OMM_VERS = 2.0
CREATION_DATE  = 
ORIGINATOR     = 

OBJECT_NAME    = OAO 3 (COPERNICUS)
OBJECT_ID      = 1972-065A
CENTER_NAME    = EARTH
REF_FRAME      = TEME
TIME_SYSTEM    = UTC
MEAN_ELEMENT_THEORY = SGP/SGP4

EPOCH          = 2026-03-05T02:25:15.423744
MEAN_MOTION    = 14.59993569
ECCENTRICITY   = .00060553
INCLINATION    = 35.0066
RA_OF_ASC_NODE = 323.4602
ARG_OF_PERICENTER = 127.5164
MEAN_ANOMALY   = 13.2442

EPHEMERIS_TYPE = 0
CLASSIFICATION_TYPE = U
NORAD_CAT_ID   = 6153
ELEMENT_SET_NO = 999
REV_AT_EPOCH   = 84552
BSTAR          = .10726768E-3
MEAN_MOTION_DOT = .501E-5
MEAN_MOTION_DDOT = 0

