ATLAS CENTAUR 2         
1 00694U 63047A   26064.09321059  .00001752  00000+0  20442-3 0  9995
2 00694  30.3518 221.3311 0547787  39.7778 324.1699 14.12050783130978
THOR AGENA D R/B        
1 00733U 64002A   26064.26597950  .00000319  00000+0  13098-3 0  9992
2 00733  99.1227  77.3623 0031906 271.3525  88.4003 14.34017210237667
SL-3 R/B                
1 00877U 64053B   26064.17524473  .00000453  00000+0  11181-3 0  9997
2 00877  65.0788 344.4717 0079569 293.6556  65.6207 14.61363349266134
SL-8 R/B                
1 02802U 67045B   26064.21529399  .00000631  00000+0  18202-3 0  9997
2 02802  74.0138 356.4442 0064009   3.7658 356.3968 14.45617853 88373
SL-8 R/B                
1 03230U 68040B   26064.11762695  .00004450  00000+0  32969-3 0  9995
2 03230  74.0328 323.0362 0024073 148.3655 211.8987 15.03219232 89327
OAO 2                   
1 03597U 68110A   26064.02293673  .00000353  00000+0  10028-3 0  9994
2 03597  34.9934 291.2799 0005355 168.0596 192.0223 14.47304579 18428
ISIS 1                  
1 03669U 69009A   26064.20609122  .00000202  00000+0  12725-3 0  9991
2 03669  88.4547 155.7975 1707824  98.2065 281.5357 11.30412502348027
SERT 2                  
1 04327U 70009A   26064.30151534  .00000011  00000+0  72031-4 0  9990
2 04327  99.2754   7.6353 0004873 166.4986 358.2692 13.58729385779290
SL-3 R/B                
1 05118U 71028B   26064.23295573  .00049263  00000+0  58855-3 0  9994
2 05118  81.2342  57.5317 0013876 304.8524  55.1423 15.60692326987976
ASTEX 1                 
1 05560U 71089A   26064.20105604  .00000621  00000+0  15777-3 0  9995
2 05560  92.7127 150.3082 0017869  99.1068 261.2161 14.50764119861652
SL-8 R/B                
1 05730U 71119B   26064.27380341  .00015754  00000+0  81834-3 0  9998
2 05730  73.8884 183.9712 0549626 151.5250 211.7146 14.37720327654853
OAO 3 (COPERNICUS)      
1 06153U 72065A   26064.10087296  .00000501  00000+0  10727-3 0  9991
2 06153  35.0066 323.4602 0006055 127.5164  13.2442 14.59993569845529
